start=new Date('2022-02-22T00:00:00.000Z').valueOf();
sats=[{"REF_FRAME":"TEME","OBJECT_TYPE":"PAYLOAD","PERIAPSIS":"546.308","MEAN_MOTION_DDOT":"0.0000000000000","ECCENTRICITY":"0.00013100","APOAPSIS":"548.122","EPHEMERIS_TYPE":"0","NORAD_CAT_ID":"48382","DECAY_DATE":null,"CLASSIFICATION_TYPE":"U","BSTAR":"-0.00000686300000","SITE":"AFETR","TLE_LINE1":"1 48382U 21038AF  22052.70989543 -.00000384  00000-0 -68630-5 0  9990","ARG_OF_PERICENTER":"56.9165","MEAN_ANOMALY":"303.1950","SEMIMAJOR_AXIS":"6925.350","OBJECT_ID":"2021-038AF","TIME_SYSTEM":"UTC","LAUNCH_DATE":"2021-05-04","REV_AT_EPOCH":"4455","OBJECT_NAME":"STARLINK-2585","ELEMENT_SET_NO":"999","GP_ID":"196572569","INCLINATION":"53.0542","FILE":"3312023","MEAN_ELEMENT_THEORY":"SGP4","RA_OF_ASC_NODE":"142.0421","MEAN_MOTION_DOT":"-0.00000384","TLE_LINE2":"2 48382  53.0542 142.0421 0001310  56.9165 303.1950 15.06399555 44554","COUNTRY_CODE":"US","CENTER_NAME":"EARTH","RCS_SIZE":"LARGE","PERIOD":"95.592","EPOCH":"2022-02-21T17:02:14.965152","MEAN_MOTION":"15.06399555"},{"RCS_SIZE":"LARGE","PERIOD":"95.592","EPOCH":"2022-02-21T16:56:55.921920","MEAN_MOTION":"15.06406924","MEAN_ELEMENT_THEORY":"SGP4","INCLINATION":"53.0550","FILE":"3312023","RA_OF_ASC_NODE":"142.0448","MEAN_MOTION_DOT":"0.00001985","COUNTRY_CODE":"US","CENTER_NAME":"EARTH","TLE_LINE2":"2 48383  53.0550 142.0448 0001556  58.7730 301.3411 15.06406924 45779","SEMIMAJOR_AXIS":"6925.327","OBJECT_ID":"2021-038AG","TIME_SYSTEM":"UTC","MEAN_ANOMALY":"301.3411","ELEMENT_SET_NO":"999","LAUNCH_DATE":"2021-05-04","REV_AT_EPOCH":"4577","OBJECT_NAME":"STARLINK-2599","GP_ID":"196572824","PERIAPSIS":"546.115","OBJECT_TYPE":"PAYLOAD","REF_FRAME":"TEME","ECCENTRICITY":"0.00015560","MEAN_MOTION_DDOT":"0.0000000000000","DECAY_DATE":null,"NORAD_CAT_ID":"48383","CLASSIFICATION_TYPE":"U","BSTAR":"0.00015208000000","APOAPSIS":"548.270","EPHEMERIS_TYPE":"0","ARG_OF_PERICENTER":"58.7730","SITE":"AFETR","TLE_LINE1":"1 48383U 21038AG  22052.70620280  .00001985  00000-0  15208-3 0  9998"},{"GP_ID":"196571571","ELEMENT_SET_NO":"999","OBJECT_NAME":"STARLINK-2601","REV_AT_EPOCH":"4575","LAUNCH_DATE":"2021-05-04","OBJECT_ID":"2021-038AH","TIME_SYSTEM":"UTC","SEMIMAJOR_AXIS":"6925.353","MEAN_ANOMALY":"301.9473","ARG_OF_PERICENTER":"58.1667","SITE":"AFETR","TLE_LINE1":"1 48384U 21038AH  22052.56982983 -.00001133  00000-0 -57147-4 0  9990","CLASSIFICATION_TYPE":"U","BSTAR":"-0.00005714700000","NORAD_CAT_ID":"48384","DECAY_DATE":null,"APOAPSIS":"548.294","EPHEMERIS_TYPE":"0","ECCENTRICITY":"0.00015530","MEAN_MOTION_DDOT":"0.0000000000000","PERIAPSIS":"546.143","OBJECT_TYPE":"PAYLOAD","REF_FRAME":"TEME","MEAN_MOTION":"15.06398543","EPOCH":"2022-02-21T13:40:33.297312","PERIOD":"95.592","RCS_SIZE":"LARGE","CENTER_NAME":"EARTH","COUNTRY_CODE":"US","TLE_LINE2":"2 48384  53.0543 142.6622 0001553  58.1667 301.9473 15.06398543 45751","MEAN_MOTION_DOT":"-0.00001133","RA_OF_ASC_NODE":"142.6622","MEAN_ELEMENT_THEORY":"SGP4","FILE":"3312023","INCLINATION":"53.0543"},{"GP_ID":"196571820","OBJECT_ID":"2021-038AJ","TIME_SYSTEM":"UTC","SEMIMAJOR_AXIS":"6925.354","MEAN_ANOMALY":"305.5392","ELEMENT_SET_NO":"999","OBJECT_NAME":"STARLINK-2598","REV_AT_EPOCH":"4578","LAUNCH_DATE":"2021-05-04","BSTAR":"0.00001861300000","CLASSIFICATION_TYPE":"U","NORAD_CAT_ID":"48385","DECAY_DATE":null,"EPHEMERIS_TYPE":"0","APOAPSIS":"548.433","ARG_OF_PERICENTER":"54.5761","SITE":"AFETR","TLE_LINE1":"1 48385U 21038AJ  22052.76518482 -.00000004  00000-0  18613-4 0  9992","PERIAPSIS":"546.005","REF_FRAME":"TEME","OBJECT_TYPE":"PAYLOAD","ECCENTRICITY":"0.00017530","MEAN_MOTION_DDOT":"0.0000000000000","MEAN_MOTION":"15.06398151","EPOCH":"2022-02-21T18:21:51.968448","PERIOD":"95.592","RCS_SIZE":"LARGE","COUNTRY_CODE":"US","CENTER_NAME":"EARTH","TLE_LINE2":"2 48385  53.0531 141.7814 0001753  54.5761 305.5392 15.06398151 45787","MEAN_ELEMENT_THEORY":"SGP4","FILE":"3312023","INCLINATION":"53.0531","MEAN_MOTION_DOT":"-0.00000004","RA_OF_ASC_NODE":"141.7814"},{"RCS_SIZE":"LARGE","PERIOD":"95.593","EPOCH":"2022-02-21T14:51:31.450464","MEAN_MOTION":"15.06387003","MEAN_ELEMENT_THEORY":"SGP4","INCLINATION":"53.0537","FILE":"3312023","RA_OF_ASC_NODE":"137.4536","MEAN_MOTION_DOT":"-0.00002901","CENTER_NAME":"EARTH","COUNTRY_CODE":"US","TLE_LINE2":"2 48386  53.0537 137.4536 0001557  57.4290 302.6850 15.06387003 44609","SEMIMAJOR_AXIS":"6925.388","TIME_SYSTEM":"UTC","OBJECT_ID":"2021-038AK","MEAN_ANOMALY":"302.6850","ELEMENT_SET_NO":"999","LAUNCH_DATE":"2021-05-04","REV_AT_EPOCH":"4460","OBJECT_NAME":"STARLINK-2606","GP_ID":"196573070","PERIAPSIS":"546.175","OBJECT_TYPE":"PAYLOAD","REF_FRAME":"TEME","ECCENTRICITY":"0.00015570","MEAN_MOTION_DDOT":"0.0000000000000","NORAD_CAT_ID":"48386","DECAY_DATE":null,"CLASSIFICATION_TYPE":"U","BSTAR":"-0.00017597000000","EPHEMERIS_TYPE":"0","APOAPSIS":"548.332","ARG_OF_PERICENTER":"57.4290","TLE_LINE1":"1 48386U 21038AK  22052.61911401 -.00002901  00000-0 -17597-3 0  9993","SITE":"AFETR"},{"ARG_OF_PERICENTER":"52.4792","SITE":"AFETR","TLE_LINE1":"1 48387U 21038AL  22052.91766790 -.00001432  00000-0 -77254-4 0  9991","DECAY_DATE":null,"NORAD_CAT_ID":"48387","CLASSIFICATION_TYPE":"U","BSTAR":"-0.00007725400000","APOAPSIS":"548.503","EPHEMERIS_TYPE":"0","ECCENTRICITY":"0.00018230","MEAN_MOTION_DDOT":"0.0000000000000","PERIAPSIS":"545.978","OBJECT_TYPE":"PAYLOAD","REF_FRAME":"TEME","GP_ID":"196573325","ELEMENT_SET_NO":"999","LAUNCH_DATE":"2021-05-04","OBJECT_NAME":"STARLINK-2600","REV_AT_EPOCH":"4465","SEMIMAJOR_AXIS":"6925.376","OBJECT_ID":"2021-038AL","TIME_SYSTEM":"UTC","MEAN_ANOMALY":"307.6363","CENTER_NAME":"EARTH","COUNTRY_CODE":"US","TLE_LINE2":"2 48387  53.0530 136.1120 0001823  52.4792 307.6363 15.06391177 44652","RA_OF_ASC_NODE":"136.1120","MEAN_MOTION_DOT":"-0.00001432","MEAN_ELEMENT_THEORY":"SGP4","INCLINATION":"53.0530","FILE":"3312023","PERIOD":"95.593","EPOCH":"2022-02-21T22:01:26.506560","MEAN_MOTION":"15.06391177","RCS_SIZE":"LARGE"},{"GP_ID":"196572072","OBJECT_ID":"2021-038AM","TIME_SYSTEM":"UTC","SEMIMAJOR_AXIS":"6925.320","MEAN_ANOMALY":"294.5144","ELEMENT_SET_NO":"999","OBJECT_NAME":"STARLINK-2594","REV_AT_EPOCH":"4462","LAUNCH_DATE":"2021-05-04","CLASSIFICATION_TYPE":"U","BSTAR":"0.00018385000000","DECAY_DATE":null,"NORAD_CAT_ID":"48388","APOAPSIS":"548.279","EPHEMERIS_TYPE":"0","ARG_OF_PERICENTER":"65.6010","TLE_LINE1":"1 48388U 21038AM  22052.71220623  .00002459  00000-0  18385-3 0  9997","SITE":"AFETR","PERIAPSIS":"546.091","REF_FRAME":"TEME","OBJECT_TYPE":"PAYLOAD","ECCENTRICITY":"0.00015800","MEAN_MOTION_DDOT":"0.0000000000000","MEAN_MOTION":"15.06409330","EPOCH":"2022-02-21T17:05:34.618272","PERIOD":"95.592","RCS_SIZE":"LARGE","CENTER_NAME":"EARTH","COUNTRY_CODE":"US","TLE_LINE2":"2 48388  53.0539 137.0225 0001580  65.6010 294.5144 15.06409330 44626","MEAN_ELEMENT_THEORY":"SGP4","FILE":"3312023","INCLINATION":"53.0539","MEAN_MOTION_DOT":"0.00002459","RA_OF_ASC_NODE":"137.0225"},{"PERIOD":"95.592","EPOCH":"2022-02-21T16:47:39.249312","MEAN_MOTION":"15.06396143","RCS_SIZE":"LARGE","COUNTRY_CODE":"US","CENTER_NAME":"EARTH","TLE_LINE2":"2 48389  53.0557 132.0791 0001706  75.9985 284.1194 15.06396143 44688","MEAN_ELEMENT_THEORY":"SGP4","INCLINATION":"53.0557","FILE":"3312023","RA_OF_ASC_NODE":"132.0791","MEAN_MOTION_DOT":"0.00000568","GP_ID":"196572321","SEMIMAJOR_AXIS":"6925.360","TIME_SYSTEM":"UTC","OBJECT_ID":"2021-038AN","MEAN_ANOMALY":"284.1194","ELEMENT_SET_NO":"999","LAUNCH_DATE":"2021-05-04","REV_AT_EPOCH":"4468","OBJECT_NAME":"STARLINK-1904","NORAD_CAT_ID":"48389","DECAY_DATE":null,"CLASSIFICATION_TYPE":"U","BSTAR":"0.00005703300000","EPHEMERIS_TYPE":"0","APOAPSIS":"548.407","ARG_OF_PERICENTER":"75.9985","SITE":"AFETR","TLE_LINE1":"1 48389U 21038AN  22052.69975983  .00000568  00000-0  57033-4 0  9994","PERIAPSIS":"546.044","REF_FRAME":"TEME","OBJECT_TYPE":"PAYLOAD","ECCENTRICITY":"0.00017060","MEAN_MOTION_DDOT":"0.0000000000000"},{"GP_ID":"196572570","MEAN_ANOMALY":"306.1738","SEMIMAJOR_AXIS":"6925.323","TIME_SYSTEM":"UTC","OBJECT_ID":"2021-038AP","LAUNCH_DATE":"2021-05-04","REV_AT_EPOCH":"4590","OBJECT_NAME":"STARLINK-2586","ELEMENT_SET_NO":"999","EPHEMERIS_TYPE":"0","APOAPSIS":"548.229","DECAY_DATE":null,"NORAD_CAT_ID":"48390","BSTAR":"0.00056937000000","CLASSIFICATION_TYPE":"U","SITE":"AFETR","TLE_LINE1":"1 48390U 21038AP  22052.69608001  .00008211  00000-0  56937-3 0  9994","ARG_OF_PERICENTER":"53.9390","REF_FRAME":"TEME","OBJECT_TYPE":"PAYLOAD","PERIAPSIS":"546.148","MEAN_MOTION_DDOT":"0.0000000000000","ECCENTRICITY":"0.00015020","PERIOD":"95.592","EPOCH":"2022-02-21T16:42:21.312864","MEAN_MOTION":"15.06408226","RCS_SIZE":"LARGE","TLE_LINE2":"2 48390  53.0542 132.1067 0001502  53.9390 306.1738 15.06408226 45902","CENTER_NAME":"EARTH","COUNTRY_CODE":"US","INCLINATION":"53.0542","FILE":"3312023","MEAN_ELEMENT_THEORY":"SGP4","RA_OF_ASC_NODE":"132.1067","MEAN_MOTION_DOT":"0.00008211"},{"GP_ID":"196572825","OBJECT_ID":"2021-038AQ","TIME_SYSTEM":"UTC","SEMIMAJOR_AXIS":"6925.374","MEAN_ANOMALY":"307.1738","ELEMENT_SET_NO":"999","REV_AT_EPOCH":"4590","OBJECT_NAME":"STARLINK-2607","LAUNCH_DATE":"2021-05-04","CLASSIFICATION_TYPE":"U","BSTAR":"0.00000870290000","DECAY_DATE":null,"NORAD_CAT_ID":"48391","EPHEMERIS_TYPE":"0","APOAPSIS":"548.374","ARG_OF_PERICENTER":"52.9401","SITE":"AFETR","TLE_LINE1":"1 48391U 21038AQ  22052.69239451 -.00000152  00000-0  87029-5 0  9999","PERIAPSIS":"546.104","REF_FRAME":"TEME","OBJECT_TYPE":"PAYLOAD","ECCENTRICITY":"0.00016390","MEAN_MOTION_DDOT":"0.0000000000000","MEAN_MOTION":"15.06391713","EPOCH":"2022-02-21T16:37:02.885664","PERIOD":"95.593","RCS_SIZE":"LARGE","COUNTRY_CODE":"US","CENTER_NAME":"EARTH","TLE_LINE2":"2 48391  53.0554 132.1190 0001639  52.9401 307.1738 15.06391713 45909","MEAN_ELEMENT_THEORY":"SGP4","FILE":"3312023","INCLINATION":"53.0554","MEAN_MOTION_DOT":"-0.00000152","RA_OF_ASC_NODE":"132.1190"}];
